0 ATLAS 2A CENTAUR R/B
1 23840U 96020B   13280.23179645 -.00000039  00000-0  00000+0 0  8299
2 23840 021.4584 116.6062 6975637 192.9196 146.7897 02.24210222143462
0 ATLAS 2A CENTAUR R/B
1 23840U 96020B   13282.45643608 -.00000062  00000-0  00000+0 0  8308
2 23840 021.4633 115.9176 6975314 194.1549 142.4038 02.24210541143513
0 ATLAS 2A CENTAUR R/B
1 23840U 96020B   13289.64252302  .00000002  00000-0  00000+0 0  8328
2 23840 021.4775 113.6989 6974578 198.1370 182.6632 02.24211214143675
0 ATLAS 2A CENTAUR R/B
1 23840U 96020B   13292.67073343 -.00000063  00000-0  00000+0 0  8330
2 23840 021.4903 112.7523 6974091 199.8525 106.8900 02.24210476143745
0 ATLAS 2A CENTAUR R/B
1 23840U 96020B   13292.97889406 -.00000070  00000-0  00000+0 0  8347
2 23840 021.4831 112.6681 6974224 199.9857 355.6302 02.24211155143752
